0 COSMOS 592
1 06849U 73069E   13281.45583574 -.00000042  00000-0 -13295-3 0  6907
2 06849 074.0020 185.5385 0099332 290.1363 183.8366 12.63829280846326
0 COSMOS 592
1 06849U 73069E   13283.74783426 -.00000020  00000-0 -14949-4 0  6914
2 06849 074.0019 182.4079 0099359 286.6237 171.9227 12.63829155846616
0 COSMOS 592
1 06849U 73069E   13285.79999608  .00000008  00000-0  13527-3 0  6927
2 06849 074.0016 179.6049 0099351 283.4809 148.8027 12.63828878846870
0 COSMOS 592
1 06849U 73069E   13288.18460640  .00000029  00000-0  24911-3 0  6935
2 06849 074.0011 176.3478 0099350 279.8309 198.2451 12.63828831847171
0 COSMOS 592
1 06849U 73069E   13290.46784517  .00000006  00000-0  12312-3 0  6949
2 06849 074.0005 173.2291 0099317 276.3420 146.4626 12.63829076847465
0 COSMOS 592
1 06849U 73069E   13292.77437644 -.00000018  00000-0 -60043-5 0  6953
2 06849 074.0002 170.0785 0099318 272.8130 200.6619 12.63829479847759
0 COSMOS 592
1 06849U 73069E   13294.82325301 -.00000022  00000-0 -24249-4 0  6960
2 06849 074.0000 167.2797 0099314 269.6775 162.5940 12.63829566848013
